start=new Date('2023-02-20T00:00:00.000Z').valueOf();
sats=[{"GP_ID":"226059400","OBJECT_ID":"2022-083AA","RA_OF_ASC_NODE":"125.0220","PERIOD":"95.436","MEAN_MOTION_DOT":"0.00022689","PERIAPSIS":"538.834","REV_AT_EPOCH":"3381","ELEMENT_SET_NO":"999","EPOCH":"2023-02-19T16:46:21.657792","LAUNCH_DATE":"2022-07-17","MEAN_MOTION":"15.08869499","ARG_OF_PERICENTER":"120.5732","TIME_SYSTEM":"UTC","BSTAR":"0.00143790000000","MEAN_ANOMALY":"239.5377","RCS_SIZE":"LARGE","FILE":"3812022","REF_FRAME":"TEME","NORAD_CAT_ID":"53156","EPHEMERIS_TYPE":"0","ECCENTRICITY":"0.00011870","APOAPSIS":"540.476","MEAN_MOTION_DDOT":"0.0000000000000","COUNTRY_CODE":"US","CLASSIFICATION_TYPE":"U","SEMIMAJOR_AXIS":"6917.790","CENTER_NAME":"EARTH","SITE":"AFETR","INCLINATION":"53.2167","MEAN_ELEMENT_THEORY":"SGP4","OBJECT_NAME":"STARLINK-4087","TLE_LINE2":"2 53156  53.2167 125.0220 0001187 120.5732 239.5377 15.08869499 33815","DECAY_DATE":null,"OBJECT_TYPE":"PAYLOAD","TLE_LINE1":"1 53156U 22083AA  23050.69886178  .00022689  00000-0  14379-2 0  9991"},{"MEAN_ELEMENT_THEORY":"SGP4","INCLINATION":"53.2173","OBJECT_NAME":"STARLINK-4093","OBJECT_TYPE":"PAYLOAD","TLE_LINE1":"1 53157U 22083AB  23050.55806901  .00019692  00000-0  12510-2 0  9998","TLE_LINE2":"2 53157  53.2173 125.6573 0001088  90.5514 269.5603 15.08865446 33165","DECAY_DATE":null,"SEMIMAJOR_AXIS":"6917.803","CLASSIFICATION_TYPE":"U","CENTER_NAME":"EARTH","SITE":"AFETR","COUNTRY_CODE":"US","MEAN_MOTION_DDOT":"0.0000000000000","EPHEMERIS_TYPE":"0","RCS_SIZE":"LARGE","FILE":"3811610","NORAD_CAT_ID":"53157","REF_FRAME":"TEME","APOAPSIS":"540.420","ECCENTRICITY":"0.00010880","TIME_SYSTEM":"UTC","BSTAR":"0.00125100000000","MEAN_ANOMALY":"269.5603","MEAN_MOTION":"15.08865446","EPOCH":"2023-02-19T13:23:37.162464","LAUNCH_DATE":"2022-07-17","ARG_OF_PERICENTER":"90.5514","PERIOD":"95.436","RA_OF_ASC_NODE":"125.6573","OBJECT_ID":"2022-083AB","MEAN_MOTION_DOT":"0.00019692","PERIAPSIS":"538.915","ELEMENT_SET_NO":"999","REV_AT_EPOCH":"3316","GP_ID":"226047689"},{"MEAN_MOTION_DDOT":"0.0000000000000","COUNTRY_CODE":"US","ECCENTRICITY":"0.00003670","APOAPSIS":"539.829","FILE":"3811610","RCS_SIZE":"LARGE","NORAD_CAT_ID":"53158","REF_FRAME":"TEME","EPHEMERIS_TYPE":"0","TLE_LINE2":"2 53158  53.2168 125.6013 0000367  77.5762 282.5271 15.08895686 33163","DECAY_DATE":null,"TLE_LINE1":"1 53158U 22083AC  23050.56909220  .00028558  00000-0  18024-2 0  9995","OBJECT_TYPE":"PAYLOAD","INCLINATION":"53.2168","MEAN_ELEMENT_THEORY":"SGP4","OBJECT_NAME":"STARLINK-4054","SITE":"AFETR","CENTER_NAME":"EARTH","CLASSIFICATION_TYPE":"U","SEMIMAJOR_AXIS":"6917.710","MEAN_MOTION_DOT":"0.00028558","PERIAPSIS":"539.321","ELEMENT_SET_NO":"999","REV_AT_EPOCH":"3316","OBJECT_ID":"2022-083AC","RA_OF_ASC_NODE":"125.6013","PERIOD":"95.434","GP_ID":"226046439","BSTAR":"0.00180240000000","MEAN_ANOMALY":"282.5271","TIME_SYSTEM":"UTC","ARG_OF_PERICENTER":"77.5762","EPOCH":"2023-02-19T13:39:29.566080","LAUNCH_DATE":"2022-07-17","MEAN_MOTION":"15.08895686"},{"PERIOD":"95.436","RA_OF_ASC_NODE":"125.9788","OBJECT_ID":"2022-083AD","PERIAPSIS":"538.636","REV_AT_EPOCH":"3315","ELEMENT_SET_NO":"999","MEAN_MOTION_DOT":"0.00017896","GP_ID":"226046689","TIME_SYSTEM":"UTC","MEAN_ANOMALY":"260.7146","BSTAR":"0.00113890000000","MEAN_MOTION":"15.08863625","LAUNCH_DATE":"2022-07-17","EPOCH":"2023-02-19T11:37:37.966944","ARG_OF_PERICENTER":"99.4016","COUNTRY_CODE":"US","MEAN_MOTION_DDOT":"0.0000000000000","EPHEMERIS_TYPE":"0","NORAD_CAT_ID":"53159","REF_FRAME":"TEME","FILE":"3811610","RCS_SIZE":"LARGE","APOAPSIS":"540.711","ECCENTRICITY":"0.00015000","OBJECT_NAME":"STARLINK-4111","INCLINATION":"53.2177","MEAN_ELEMENT_THEORY":"SGP4","TLE_LINE1":"1 53159U 22083AD  23050.48446721  .00017896  00000-0  11389-2 0  9999","OBJECT_TYPE":"PAYLOAD","DECAY_DATE":null,"TLE_LINE2":"2 53159  53.2177 125.9788 0001500  99.4016 260.7146 15.08863625 33157","SEMIMAJOR_AXIS":"6917.808","CLASSIFICATION_TYPE":"U","CENTER_NAME":"EARTH","SITE":"AFETR"},{"ARG_OF_PERICENTER":"108.4367","LAUNCH_DATE":"2022-07-17","EPOCH":"2023-02-19T11:53:32.038944","MEAN_MOTION":"15.08864713","MEAN_ANOMALY":"251.6752","BSTAR":"0.00179180000000","TIME_SYSTEM":"UTC","GP_ID":"226047940","ELEMENT_SET_NO":"999","PERIAPSIS":"538.863","REV_AT_EPOCH":"3315","MEAN_MOTION_DOT":"0.00028363","OBJECT_ID":"2022-083AE","PERIOD":"95.436","RA_OF_ASC_NODE":"125.9301","CENTER_NAME":"EARTH","SITE":"AFETR","CLASSIFICATION_TYPE":"U","SEMIMAJOR_AXIS":"6917.805","DECAY_DATE":null,"TLE_LINE2":"2 53160  53.2163 125.9301 0001166 108.4367 251.6752 15.08864713 33154","TLE_LINE1":"1 53160U 22083AE  23050.49550971  .00028363  00000-0  17918-2 0  9990","OBJECT_TYPE":"PAYLOAD","OBJECT_NAME":"STARLINK-4096","MEAN_ELEMENT_THEORY":"SGP4","INCLINATION":"53.2163","ECCENTRICITY":"0.00011660","APOAPSIS":"540.476","NORAD_CAT_ID":"53160","REF_FRAME":"TEME","RCS_SIZE":"LARGE","FILE":"3811610","EPHEMERIS_TYPE":"0","MEAN_MOTION_DDOT":"0.0000000000000","COUNTRY_CODE":"US"},{"TIME_SYSTEM":"UTC","BSTAR":"0.00048664000000","MEAN_ANOMALY":"265.1679","MEAN_MOTION":"15.08850930","EPOCH":"2023-02-19T16:07:53.148288","LAUNCH_DATE":"2022-07-17","ARG_OF_PERICENTER":"94.9431","PERIOD":"95.437","RA_OF_ASC_NODE":"125.1443","OBJECT_ID":"2022-083AF","MEAN_MOTION_DOT":"0.00007468","REV_AT_EPOCH":"3381","PERIAPSIS":"538.999","ELEMENT_SET_NO":"999","GP_ID":"226057034","MEAN_ELEMENT_THEORY":"SGP4","INCLINATION":"53.2141","OBJECT_NAME":"STARLINK-4055","TLE_LINE1":"1 53161U 22083AF  23050.67214292  .00007468  00000-0  48664-3 0  9990","OBJECT_TYPE":"PAYLOAD","TLE_LINE2":"2 53161  53.2141 125.1443 0001031  94.9431 265.1679 15.08850930 33819","DECAY_DATE":null,"SEMIMAJOR_AXIS":"6917.847","CLASSIFICATION_TYPE":"U","SITE":"AFETR","CENTER_NAME":"EARTH","COUNTRY_CODE":"US","MEAN_MOTION_DDOT":"0.0000000000000","EPHEMERIS_TYPE":"0","RCS_SIZE":"LARGE","FILE":"3811910","NORAD_CAT_ID":"53161","REF_FRAME":"TEME","APOAPSIS":"540.425","ECCENTRICITY":"0.00010310"},{"EPHEMERIS_TYPE":"0","RCS_SIZE":"LARGE","FILE":"3811610","REF_FRAME":"TEME","NORAD_CAT_ID":"53162","APOAPSIS":"540.532","ECCENTRICITY":"0.00012560","COUNTRY_CODE":"US","MEAN_MOTION_DDOT":"0.0000000000000","SEMIMAJOR_AXIS":"6917.798","CLASSIFICATION_TYPE":"U","CENTER_NAME":"EARTH","SITE":"AFETR","INCLINATION":"53.2177","MEAN_ELEMENT_THEORY":"SGP4","OBJECT_NAME":"STARLINK-4114","OBJECT_TYPE":"PAYLOAD","TLE_LINE1":"1 53162U 22083AG  23050.48814703  .00018259  00000-0  11615-2 0  9998","TLE_LINE2":"2 53162  53.2177 125.9706 0001256  79.6129 280.5005 15.08866994 33150","DECAY_DATE":null,"GP_ID":"226046939","RA_OF_ASC_NODE":"125.9706","PERIOD":"95.436","OBJECT_ID":"2022-083AG","MEAN_MOTION_DOT":"0.00018259","REV_AT_EPOCH":"3315","PERIAPSIS":"538.794","ELEMENT_SET_NO":"999","MEAN_MOTION":"15.08866994","EPOCH":"2023-02-19T11:42:55.903392","LAUNCH_DATE":"2022-07-17","ARG_OF_PERICENTER":"79.6129","TIME_SYSTEM":"UTC","BSTAR":"0.00116150000000","MEAN_ANOMALY":"280.5005"},{"EPHEMERIS_TYPE":"0","RCS_SIZE":"LARGE","FILE":"3811610","REF_FRAME":"TEME","NORAD_CAT_ID":"53163","APOAPSIS":"540.475","ECCENTRICITY":"0.00010690","COUNTRY_CODE":"US","MEAN_MOTION_DDOT":"0.0000000000000","SEMIMAJOR_AXIS":"6917.871","CLASSIFICATION_TYPE":"U","SITE":"AFETR","CENTER_NAME":"EARTH","MEAN_ELEMENT_THEORY":"SGP4","INCLINATION":"53.2149","OBJECT_NAME":"STARLINK-4104","OBJECT_TYPE":"PAYLOAD","TLE_LINE1":"1 53163U 22083AH  23050.59950692  .00007399  00000-0  48242-3 0  9999","TLE_LINE2":"2 53163  53.2149 125.4640 0001069 113.9117 246.1987 15.08843180 33174","DECAY_DATE":null,"GP_ID":"226047189","RA_OF_ASC_NODE":"125.4640","PERIOD":"95.437","OBJECT_ID":"2022-083AH","MEAN_MOTION_DOT":"0.00007399","PERIAPSIS":"538.996","REV_AT_EPOCH":"3317","ELEMENT_SET_NO":"999","MEAN_MOTION":"15.08843180","EPOCH":"2023-02-19T14:23:17.397888","LAUNCH_DATE":"2022-07-17","ARG_OF_PERICENTER":"113.9117","TIME_SYSTEM":"UTC","BSTAR":"0.00048242000000","MEAN_ANOMALY":"246.1987"},{"CLASSIFICATION_TYPE":"U","SEMIMAJOR_AXIS":"6917.877","CENTER_NAME":"EARTH","SITE":"AFETR","OBJECT_NAME":"STARLINK-4116","INCLINATION":"53.2160","MEAN_ELEMENT_THEORY":"SGP4","DECAY_DATE":null,"TLE_LINE2":"2 53164  53.2160 126.0201 0000926 102.3750 257.7346 15.08841051 33154","OBJECT_TYPE":"PAYLOAD","TLE_LINE1":"1 53164U 22083AJ  23050.47710555  .00005907  00000-0  38892-3 0  9992","NORAD_CAT_ID":"53164","REF_FRAME":"TEME","RCS_SIZE":"LARGE","FILE":"3811610","EPHEMERIS_TYPE":"0","ECCENTRICITY":"0.00009260","APOAPSIS":"540.383","MEAN_MOTION_DDOT":"0.0000000000000","COUNTRY_CODE":"US","LAUNCH_DATE":"2022-07-17","EPOCH":"2023-02-19T11:27:01.919520","MEAN_MOTION":"15.08841051","ARG_OF_PERICENTER":"102.3750","TIME_SYSTEM":"UTC","MEAN_ANOMALY":"257.7346","BSTAR":"0.00038892000000","GP_ID":"226047441","OBJECT_ID":"2022-083AJ","PERIOD":"95.437","RA_OF_ASC_NODE":"126.0201","PERIAPSIS":"539.102","ELEMENT_SET_NO":"999","REV_AT_EPOCH":"3315","MEAN_MOTION_DOT":"0.00005907"},{"TIME_SYSTEM":"UTC","MEAN_ANOMALY":"265.3845","BSTAR":"0.00136760000000","MEAN_MOTION":"15.08862752","LAUNCH_DATE":"2022-07-17","EPOCH":"2023-02-19T17:27:22.208832","ARG_OF_PERICENTER":"94.7257","RA_OF_ASC_NODE":"124.8963","PERIOD":"95.436","OBJECT_ID":"2022-083AK","ELEMENT_SET_NO":"999","PERIAPSIS":"539.014","REV_AT_EPOCH":"3382","MEAN_MOTION_DOT":"0.00021558","GP_ID":"226059508","OBJECT_NAME":"STARLINK-4090","MEAN_ELEMENT_THEORY":"SGP4","INCLINATION":"53.2132","OBJECT_TYPE":"PAYLOAD","TLE_LINE1":"1 53165U 22083AK  23050.72734038  .00021558  00000-0  13676-2 0  9995","DECAY_DATE":null,"TLE_LINE2":"2 53165  53.2132 124.8963 0000957  94.7257 265.3845 15.08862752 33829","SEMIMAJOR_AXIS":"6917.811","CLASSIFICATION_TYPE":"U","SITE":"AFETR","CENTER_NAME":"EARTH","COUNTRY_CODE":"US","MEAN_MOTION_DDOT":"0.0000000000000","EPHEMERIS_TYPE":"0","NORAD_CAT_ID":"53165","REF_FRAME":"TEME","FILE":"3812029","RCS_SIZE":"LARGE","APOAPSIS":"540.338","ECCENTRICITY":"0.00009570"}];
